OBJECT_NAME,OBJECT_ID,EPOCH,MEAN_MOTION,ECCENTRICITY,INCLINATION,RA_OF_ASC_NODE,ARG_OF_PERICENTER,MEAN_ANOMALY,EPHEMERIS_TYPE,CLASSIFICATION_TYPE,NORAD_CAT_ID,ELEMENT_SET_NO,REV_AT_EPOCH,BSTAR,MEAN_MOTION_DOT,MEAN_MOTION_DDOT
STARLINK-4075,2022-053Q,2026-06-03T06:01:55.063200,15.08818113,.0000993,53.1849,130.0581,101.9404,258.1699,0,U,52670,999,22396,.33302E-3,.5013E-4,0
STARLINK-4071,2022-053R,2026-06-03T03:49:25.161600,15.08831011,.0000848,53.1857,130.4140,69.3303,290.7780,0,U,52671,999,22394,.37493019E-4,.309E-5,0
STARLINK-4073,2022-053S,2026-06-03T04:05:19.250016,15.08831468,.00016434,53.1841,130.3645,105.4912,254.6262,0,U,52672,999,22394,.2769559E-5,-.244E-5,0
STARLINK-3976,2022-053T,2026-06-03T03:38:48.867072,15.08862290,.00012898,53.1836,130.4543,68.9084,291.2046,0,U,52673,999,22394,-.32580561E-3,-.5473E-4,0
STARLINK-3936,2022-053U,2026-06-03T12:00:22.000032,15.42868736,.0001374,53.2180,121.1839,58.2808,331.1147,0,U,52674,999,583,.30786E-2,.139285E-2,0
STARLINK-3934,2022-053V,2026-06-03T05:10:14.701152,15.08833043,.0001627,53.1840,120.1629,70.1348,289.9819,0,U,52675,999,22408,.20881E-4,.44E-6,0
STARLINK-4006,2022-053W,2026-06-03T05:19:30.502848,15.08833223,.0001903,53.1835,130.1329,63.7629,296.3558,0,U,52676,999,22395,.46662E-4,.454E-5,0
STARLINK-4074,2022-053Y,2026-06-03T05:26:09.085056,15.08836680,.0001502,53.1845,120.2147,64.8654,295.2493,0,U,52678,999,22408,.39068E-4,.334E-5,0
STARLINK-4031,2022-053Z,2026-06-02T04:52:56.825472,15.08836374,.00014604,53.1862,124.7082,57.9777,302.1357,0,U,52679,999,22389,.47584286E-4,.469E-5,0
STARLINK-3774,2022-053AA,2026-06-03T02:57:43.020576,15.08833767,.00023572,53.1975,120.3411,78.0888,282.0368,0,U,52680,999,22405,-.6344405E-5,-.389E-5,0
STARLINK-4068,2022-053AB,2026-06-03T04:38:24.188064,15.08839092,.0001492,53.1838,120.2564,128.1729,231.9398,0,U,52681,999,22404,.70768E-3,.10993E-3,0
STARLINK-4017,2022-053AC,2026-06-03T03:18:57.154464,15.08832251,.00018092,53.1853,120.5102,64.9581,295.1599,0,U,52682,999,22405,.46241977E-4,.448E-5,0
STARLINK-4014,2022-053AE,2026-06-03T04:49:02.100864,15.08831427,.0001368,53.1849,120.2241,98.3144,261.8003,0,U,52684,999,22404,.71723E-5,-.174E-5,0
STARLINK-4029,2022-053AF,2026-06-03T04:17:15.453312,15.08831866,.0001123,53.1836,120.3221,76.5382,283.5735,0,U,52685,999,22402,.19742E-3,.2855E-4,0
STARLINK-4005,2022-053AG,2026-06-03T05:11:39.450048,15.08838685,.000121,53.1833,120.4252,80.1573,279.9555,0,U,52686,999,22403,.67085E-4,.78E-5,0
STARLINK-3981,2022-053AH,2026-06-03T04:11:56.231232,15.08838645,.00015598,53.1846,120.3426,71.8108,288.3053,0,U,52687,999,22402,.66501428E-4,.77E-5,0
STARLINK-4032,2022-053AJ,2026-06-03T04:06:37.193184,15.08842153,.00014158,53.1853,120.2422,93.1116,267.0038,0,U,52688,999,22402,-.11331782E-4,-.468E-5,0
STARLINK-4078,2022-053AK,2026-06-03T12:00:22.000032,15.69488652,.0002922,53.2066,26.5989,128.4716,233.1242,0,U,52689,999,600,.1666E-2,.204419E-2,0
STARLINK-4035,2022-053AL,2026-06-02T04:31:46.538976,15.08830898,.00027359,53.1891,124.7886,149.2671,210.8482,0,U,52690,999,22387,.13101114E-3,.1797E-4,0
STARLINK-3993,2022-053AN,2026-06-03T05:04:53.834880,15.08828429,.0001723,53.1832,119.9025,53.5862,306.5288,0,U,52692,999,22406,-.26726E-4,-.713E-5,0
STARLINK-3946,2022-053AP,2026-06-03T11:37:04.613088,15.08833678,.0001235,53.1816,118.9566,53.0191,307.0914,0,U,52693,999,22410,.64505E-4,.739E-5,0
STARLINK-4072,2022-053AQ,2026-06-03T04:01:20.567424,15.08838641,.00017645,53.1841,120.3791,65.8969,294.2207,0,U,52694,999,22405,.54500009E-4,.579E-5,0
STARLINK-4041,2022-053AR,2026-06-03T03:20:54.012192,15.08835349,.00018538,53.1838,125.2956,48.2818,311.8333,0,U,52695,999,22399,.79424305E-4,.976E-5,0
STARLINK-4018,2022-053AT,2026-06-03T05:34:51.221856,15.08746677,.0002873,53.1846,125.0788,128.1957,231.9294,0,U,52697,999,22400,.49239E-3,.7537E-4,0
STARLINK-4030,2022-053AU,2026-06-03T10:35:25.673568,15.08869093,.0001419,53.1831,124.1294,80.5234,279.5918,0,U,52698,999,22402,.34803E-3,.526E-4,0
STARLINK-3987,2022-053AV,2026-06-03T03:43:27.649632,15.08838094,.00016015,53.1839,115.4579,60.7481,299.3671,0,U,52699,999,22414,.21008036E-4,.46E-6,0
STARLINK-4034,2022-053AW,2026-06-03T04:50:57.710112,15.08831280,.0001737,53.1857,124.8591,86.2937,273.8253,0,U,52700,999,22400,.91962E-4,.1175E-4,0
STARLINK-4033,2022-053AY,2026-06-03T05:33:25.244352,15.08836321,.0001198,53.1824,125.1092,91.0397,269.0732,0,U,52702,999,22400,.73398E-4,.88E-5,0
STARLINK-4020,2022-053AZ,2026-06-03T04:34:25.992768,15.08853854,.0001797,53.1824,110.2803,145.9258,214.1849,0,U,52703,999,22294,.36422E-3,.5516E-4,0
STARLINK-3999,2022-053BA,2026-06-03T03:20:16.271808,15.08834974,.00012814,53.1841,110.5068,76.5703,283.5431,0,U,52704,999,22421,.14177886E-3,.1969E-4,0
STARLINK-3844,2022-053BB,2026-06-03T04:39:45.403200,15.08838637,.0001225,53.1836,110.2511,119.5138,240.5976,0,U,52705,999,22422,.57246E-4,.623E-5,0
STARLINK-3970,2022-053BC,2026-06-03T04:44:58.964352,15.08904989,.0001461,53.1850,110.2343,153.9806,206.1259,0,U,52706,999,22422,.48336E-3,.7427E-4,0
STARLINK-4007,2022-053BD,2026-06-02T03:55:39.147456,15.10164858,.00025533,53.2151,114.5909,65.4270,294.6989,0,U,52707,999,22413,.14361499E-2,.23491E-3,0
STARLINK-3962,2022-053BE,2026-06-02T03:50:40.740000,15.08832357,.00016292,53.1901,114.8894,85.2440,274.8738,0,U,52708,999,22427,.74882507E-4,.904E-5,0
COSMOS 2556,2022-054A,2026-06-03T12:31:56.612928,15.26062387,.0002243,97.6285,103.9338,103.6300,256.5187,0,U,52713,999,22465,.1051E-3,.2631E-4,0
2022-056B,2022-056B,2026-06-03T12:12:05.663232,13.29590038,.0046567,86.0073,104.2630,77.4205,283.2133,0,U,52717,999,19649,.99032E-3,.478E-5,0
GHGSAT-C3,2022-057F,2026-06-03T11:27:58.260960,15.34168205,.0006723,97.6587,299.6231,158.8923,201.2598,0,U,52737,999,22343,.23312E-3,.763E-4,0
GHGSAT-C5,2022-057N,2026-06-03T12:23:46.966848,15.34146069,.000729,97.6675,301.2218,157.6506,202.5055,0,U,52744,999,22344,.2273E-3,.7432E-4,0
GHGSAT-C4,2022-057Q,2026-06-03T13:31:16.490784,15.34156923,.0007193,97.6514,298.5572,145.1637,215.0077,0,U,52746,999,22345,.22903E-3,.7493E-4,0
HAWK-5C,2022-057Y,2026-06-02T20:26:24.345024,15.50847845,.0005529,97.6583,312.6023,125.0244,235.1527,0,U,52754,999,22412,.35454E-3,.20406E-3,0
HAWK-5B,2022-057AA,2026-06-03T05:43:40.196352,15.50865178,.0006,97.6591,311.3622,116.1777,244.0092,0,U,52756,999,22418,.37323E-3,.21506E-3,0
HAWK-5A,2022-057AB,2026-06-02T20:25:51.633984,15.50847928,.0006084,97.6589,311.7818,122.0269,238.1574,0,U,52757,999,22412,.35414E-3,.20386E-3,0
VIGORIDE-3,2022-057AE,2026-06-03T07:49:47.625024,15.27125572,.0008758,97.6593,293.9362,164.1114,196.0401,0,U,52760,999,22304,.25458E-3,.6701E-4,0
ION SCV-006,2022-057AF,2026-06-03T07:20:35.247264,15.44931012,.0017924,97.6093,302.2671,160.9888,199.2033,0,U,52761,999,22397,.31451E-3,.14795E-3,0
SHERPA-AC1,2022-057AH,2026-06-03T07:44:29.502816,15.36058286,.0008667,97.6674,302.9743,135.8969,224.2967,0,U,52763,999,22357,.23571E-3,.8201E-4,0
OMNI-L2,2022-057AR,2026-06-03T00:07:21.757152,14.81330574,.00070527,97.4715,217.3165,24.8733,335.2819,0,U,52771,999,21829,.21401481E-3,.1624E-4,0
GEESAT-1 01,2022-058A,2026-06-03T11:52:22.067040,14.81336889,.0022787,49.9932,265.7157,209.2392,150.7271,0,U,52785,999,21790,.29803E-3,.2136E-4,0
GEESAT-1 02,2022-058B,2026-06-03T12:13:58.181952,14.81341499,.0023306,50.0003,265.9164,199.6595,160.3445,0,U,52786,999,21790,.30392E-3,.2183E-4,0
GEESAT-1 03,2022-058C,2026-06-03T11:20:02.941728,14.81333358,.0007836,49.9868,264.7357,52.8278,307.3374,0,U,52787,999,21790,.2783E-3,.1974E-4,0
GEESAT-1 04,2022-058D,2026-06-03T11:31:06.396096,14.81355248,.0009545,50.0040,266.3375,98.4069,261.7951,0,U,52788,999,21789,.28168E-3,.2002E-4,0
GEESAT-1 05,2022-058E,2026-06-03T11:56:33.563616,15.00553932,.0002313,49.9864,245.8415,340.5234,19.5622,0,U,52789,999,21815,.35487E-3,.4271E-4,0
GEESAT-1 06,2022-058F,2026-06-03T10:48:01.073088,14.81321689,.0033693,50.0047,266.3206,94.6140,265.8647,0,U,52790,999,21789,.29771E-3,.2141E-4,0
GEESAT-1 07,2022-058G,2026-06-03T12:46:22.130112,14.81344769,.0012277,49.9881,264.5661,43.3647,316.8254,0,U,52791,999,21790,.27203E-3,.1925E-4,0
GEESAT-1 08,2022-058H,2026-06-03T11:41:20.217120,14.81335645,.0020325,49.9933,264.8220,237.2736,122.6242,0,U,52792,999,21790,.28873E-3,.206E-4,0
GEESAT-1 09,2022-058J,2026-06-03T11:01:34.681152,15.00456957,.0006297,49.9969,247.0762,117.4718,242.6868,0,U,52793,999,21818,.39117E-3,.4723E-4,0
NILESAT 301,2022-061A,2026-06-03T10:09:02.344320,1.00272135,.0005782,0.0515,16.2797,26.0582,354.7999,0,U,52817,999,1459,0,-.46E-6,0
STARLINK-4091,2022-062A,2026-06-02T20:03:07.167168,15.08842218,.00024209,53.1865,12.0585,133.5586,226.5607,0,U,52830,999,21863,-.59439154E-4,-.1234E-4,0
STARLINK-4089,2022-062B,2026-06-02T19:52:29.026272,15.08837203,.00016504,53.1864,11.8974,116.4796,243.6365,0,U,52831,999,21863,.83464551E-4,.104E-4,0
STARLINK-4083,2022-062C,2026-06-02T19:47:11.600448,15.08817097,.00015225,53.1866,11.9334,125.1426,234.9709,0,U,52832,999,21863,.19499171E-3,.2815E-4,0
STARLINK-4086,2022-062D,2026-06-02T19:41:49.195392,15.08886673,.00019893,53.1915,11.9322,120.6334,239.4855,0,U,52833,999,21863,.3160456E-3,.4752E-4,0
STARLINK-4108,2022-062E,2026-06-02T19:31:17.671008,15.08831559,.00012143,53.1884,11.9750,85.6375,274.4756,0,U,52834,999,21863,.79136816E-4,.972E-5,0
STARLINK-4080,2022-062F,2026-06-02T19:26:00.262464,15.08832202,.0002105,53.1869,11.9869,85.5189,274.6044,0,U,52835,999,21863,-.35721042E-4,-.857E-5,0
STARLINK-4043,2022-062G,2026-06-03T12:00:22.000032,15.44024268,.0001428,53.2190,1.1986,101.1356,83.7313,0,U,52836,999,589,.12574E-1,.624032E-2,0
STARLINK-4036,2022-062H,2026-06-02T19:10:05.988288,15.08836295,.00015522,53.1883,12.0318,90.2468,269.8702,0,U,52837,999,21863,.43005323E-4,.396E-5,0
STARLINK-4092,2022-062J,2026-06-02T19:15:23.678496,15.08846301,.00011676,53.1891,12.0015,108.9413,251.1705,0,U,52838,999,21863,-.85660999E-4,-.1651E-4,0
